{"type": "FeatureCollection", "features": [ {"type": "Feature", "properties": {"norad_id": 34979, "name": "COSMOS 2251 DEB", "group": "cosmos-2251-debris", "lat": 72.84192662608937, "lon": 12.99355018975222, "alt_km": 639.9349971837855, "timestamp": "2025-12-15T22:44:29.325979+00:00", "meta": {"OBJECT_NAME": "COSMOS 2251 DEB", "OBJECT_ID": "1993-036AFJ", "EPOCH": "2025-12-15T01:12:38.602656", "MEAN_MOTION": 14.79403846, "ECCENTRICITY": 0.00491131, "INCLINATION": 74.0399, "RA_OF_ASC_NODE": 262.7164, "ARG_OF_PERICENTER": 340.1912, "MEAN_ANOMALY": 19.7354, "EPHEMERIS_TYPE": 0, "CLASSIFICATION_TYPE": "U", "NORAD_CAT_ID": 34979, "ELEMENT_SET_NO": 999, "REV_AT_EPOCH": 88254, "BSTAR": 0.00083002488, "MEAN_MOTION_DOT": 6.289e-05, "MEAN_MOTION_DDOT": 0}, "tle": {"line1": "1 34979U 93036AFJ 25349.05044679  .00006289  00000+0  83002-3 0  9991", "line2": "2 34979  74.0399 262.7164 0049113 340.1912  19.7354 14.79403846882544"}}, "geometry": {"type": "Point", "coordinates": [12.99355018975222, 72.84192662608937]}}, {"type": "Feature", "properties": {"norad_id": 34990, "name": "COSMOS 2251 DEB", "group": "cosmos-2251-debris", "lat": 44.70795898265202, "lon": 48.94015712468354, "alt_km": 758.1800961404615, "timestamp": "2025-12-15T22:44:29.325989+00:00", "meta": {"OBJECT_NAME": "COSMOS 2251 DEB", "OBJECT_ID": "1993-036AFN", "EPOCH": "2025-12-13T23:31:06.015936", "MEAN_MOTION": 14.42379588, "ECCENTRICITY": 0.00165206, "INCLINATION": 74.0455, "RA_OF_ASC_NODE": 249.0358, "ARG_OF_PERICENTER": 311.5177, "MEAN_ANOMALY": 48.4561, "EPHEMERIS_TYPE": 0, "CLASSIFICATION_TYPE": "U", "NORAD_CAT_ID": 34990, "ELEMENT_SET_NO": 999, "REV_AT_EPOCH": 87364, "BSTAR": 0.0004974881, "MEAN_MOTION_DOT": 1.621e-05, "MEAN_MOTION_DDOT": 0}, "tle": {"line1": "1 34990U 93036AFN 25347.97993074  .00001621  00000+0  49749-3 0  9990", "line2": "2 34990  74.0455 249.0358 0016520 311.5177  48.4561 14.42379588873649"}}, "geometry": {"type": "Point", "coordinates": [48.94015712468354, 44.70795898265202]}}, {"type": "Feature", "properties": {"norad_id": 34997, "name": "COSMOS 2251 DEB", "group": "cosmos-2251-debris", "lat": -22.646683187824596, "lon": -61.77100694689438, "alt_km": 706.5938364511139, "timestamp": "2025-12-15T22:44:29.326014+00:00", "meta": {"OBJECT_NAME": "COSMOS 2251 DEB", "OBJECT_ID": "1993-036AFV", "EPOCH": "2025-12-14T03:40:01.084512", "MEAN_MOTION": 14.45585468, "ECCENTRICITY": 0.00977103, "INCLINATION": 73.8806, "RA_OF_ASC_NODE": 308.5363, "ARG_OF_PERICENTER": 283.3348, "MEAN_ANOMALY": 75.6929, "EPHEMERIS_TYPE": 0, "CLASSIFICATION_TYPE": "U", "NORAD_CAT_ID": 34997, "ELEMENT_SET_NO": 999, "REV_AT_EPOCH": 70767, "BSTAR": 0.0019000145, "MEAN_MOTION_DOT": 7.095e-05, "MEAN_MOTION_DDOT": 0}, "tle": {"line1": "1 34997U 93036AFV 25348.15279033  .00007095  00000+0  19000-2 0  9997", "line2": "2 34997  73.8806 308.5363 0097710 283.3348  75.6929 14.45585468707674"}}, "geometry": {"type": "Point", "coordinates": [-61.77100694689438, -22.646683187824596]}}, {"type": "Feature", "properties": {"norad_id": 34998, "name": "COSMOS 2251 DEB", "group": "cosmos-2251-debris", "lat": -69.64840245679524, "lon": 24.588165858877044, "alt_km": 723.5852091820716, "timestamp": "2025-12-15T22:44:29.326025+00:00", "meta": {"OBJECT_NAME": "COSMOS 2251 DEB", "OBJECT_ID": "1993-036AFW", "EPOCH": "2025-12-14T12:41:32.006688", "MEAN_MOTION": 14.49289974, "ECCENTRICITY": 0.00211879, "INCLINATION": 74.0093, "RA_OF_ASC_NODE": 156.6225, "ARG_OF_PERICENTER": 301.7782, "MEAN_ANOMALY": 116.5134, "EPHEMERIS_TYPE": 0, "CLASSIFICATION_TYPE": "U", "NORAD_CAT_ID": 34998, "ELEMENT_SET_NO": 999, "REV_AT_EPOCH": 87446, "BSTAR": 0.0006296674, "MEAN_MOTION_DOT": 2.382e-05, "MEAN_MOTION_DDOT": 0}, "tle": {"line1": "1 34998U 93036AFW 25348.52884267  .00002382  00000+0  62967-3 0  9995", "line2": "2 34998  74.0093 156.6225 0021187 301.7782 116.5134 14.49289974874469"}}, "geometry": {"type": "Point", "coordinates": [24.588165858877044, -69.64840245679524]}}, {"type": "Feature", "properties": {"norad_id": 35000, "name": "COSMOS 2251 DEB", "group": "cosmos-2251-debris", "lat": -51.98470315204552, "lon": 168.7259245948598, "alt_km": 190.9805008010453, "timestamp": "2025-12-15T22:44:29.326036+00:00", "meta": {"OBJECT_NAME": "COSMOS 2251 DEB", "OBJECT_ID": "1993-036AFY", "EPOCH": "2025-12-10T00:39:45.535104", "MEAN_MOTION": 15.84722247, "ECCENTRICITY": 0.00096992, "INCLINATION": 73.9939, "RA_OF_ASC_NODE": 204.1935, "ARG_OF_PERICENTER": 175.3945, "MEAN_ANOMALY": 184.7377, "EPHEMERIS_TYPE": 0, "CLASSIFICATION_TYPE": "U", "NORAD_CAT_ID": 35000, "ELEMENT_SET_NO": 999, "REV_AT_EPOCH": 88472, "BSTAR": 0.007821664, "MEAN_MOTION_DOT": 0.0209211, "MEAN_MOTION_DDOT": 0}, "tle": {"line1": "1 35000U 93036AFY 25344.02761036  .02092110  00000+0  78217-2 0  9993", "line2": "2 35000  73.9939 204.1935 0009699 175.3945 184.7377 15.84722247884729"}}, "geometry": {"type": "Point", "coordinates": [168.7259245948598, -51.98470315204552]}}, {"type": "Feature", "properties": {"norad_id": 35012, "name": "COSMOS 2251 DEB", "group": "cosmos-2251-debris", "lat": -6.77246310284694, "lon": -72.29956303905051, "alt_km": 712.7797697137212, "timestamp": "2025-12-15T22:44:29.326046+00:00", "meta": {"OBJECT_NAME": "COSMOS 2251 DEB", "OBJECT_ID": "1993-036AFZ", "EPOCH": "2025-12-14T14:18:50.707008", "MEAN_MOTION": 14.45551422, "ECCENTRICITY": 0.00815929, "INCLINATION": 74.0205, "RA_OF_ASC_NODE": 108.2711, "ARG_OF_PERICENTER": 248.0498, "MEAN_ANOMALY": 111.1974, "EPHEMERIS_TYPE": 0, "CLASSIFICATION_TYPE": "U", "NORAD_CAT_ID": 35012, "ELEMENT_SET_NO": 999, "REV_AT_EPOCH": 87588, "BSTAR": 0.00022143497, "MEAN_MOTION_DOT": 7.85e-06, "MEAN_MOTION_DDOT": 0}, "tle": {"line1": "1 35012U 93036AFZ 25348.59642022  .00000785  00000+0  22143-3 0  9998", "line2": "2 35012  74.0205 108.2711 0081592 248.0498 111.1974 14.45551422875884"}}, "geometry": {"type": "Point", "coordinates": [-72.29956303905051, -6.77246310284694]}}, {"type": "Feature", "properties": {"norad_id": 35014, "name": "COSMOS 2251 DEB", "group": "cosmos-2251-debris", "lat": -72.66261294761813, "lon": -29.552643247684326, "alt_km": 649.0355548297675, "timestamp": "2025-12-15T22:44:29.326057+00:00", "meta": {"OBJECT_NAME": "COSMOS 2251 DEB", "OBJECT_ID": "1993-036AGB", "EPOCH": "2025-12-14T21:04:40.967616", "MEAN_MOTION": 14.75237157, "ECCENTRICITY": 0.00071195, "INCLINATION": 73.9995, "RA_OF_ASC_NODE": 39.3463, "ARG_OF_PERICENTER": 216.0142, "MEAN_ANOMALY": 144.0552, "EPHEMERIS_TYPE": 0, "CLASSIFICATION_TYPE": "U", "NORAD_CAT_ID": 35014, "ELEMENT_SET_NO": 999, "REV_AT_EPOCH": 71368, "BSTAR": 0.00097066403, "MEAN_MOTION_DOT": 6.542e-05, "MEAN_MOTION_DDOT": 0}, "tle": {"line1": "1 35014U 93036AGB 25348.87825194  .00006542  00000+0  97066-3 0  9997", "line2": "2 35014  73.9995  39.3463 0007119 216.0142 144.0552 14.75237157713687"}}, "geometry": {"type": "Point", "coordinates": [-29.552643247684326, -72.66261294761813]}}, {"type": "Feature", "properties": {"norad_id": 35015, "name": "COSMOS 2251 DEB", "group": "cosmos-2251-debris", "lat": -21.155824461918076, "lon": -137.6924192836403, "alt_km": 765.9718415662774, "timestamp": "2025-12-15T22:44:29.326067+00:00", "meta": {"OBJECT_NAME": "COSMOS 2251 DEB", "OBJECT_ID": "1993-036AGC", "EPOCH": "2025-12-08T23:19:05.687904", "MEAN_MOTION": 14.46841193, "ECCENTRICITY": 0.0074204, "INCLINATION": 73.9478, "RA_OF_ASC_NODE": 241.8046, "ARG_OF_PERICENTER": 111.6456, "MEAN_ANOMALY": 265.9615, "EPHEMERIS_TYPE": 0, "CLASSIFICATION_TYPE": "U", "NORAD_CAT_ID": 35015, "ELEMENT_SET_NO": 999, "REV_AT_EPOCH": 65386, "BSTAR": 0.00095869, "MEAN_MOTION_DOT": 3.57e-05, "MEAN_MOTION_DDOT": 0}, "tle": {"line1": "1 35015U 93036AGC 25342.97159361  .00003570  00000+0  95869-3 0  9996", "line2": "2 35015  73.9478 241.8046 0074204 111.6456 265.9615 14.46841193653863"}}, "geometry": {"type": "Point", "coordinates": [-137.6924192836403, -21.155824461918076]}}, {"type": "Feature", "properties": {"norad_id": 35016, "name": "COSMOS 2251 DEB", "group": "cosmos-2251-debris", "lat": -42.8321094234762, "lon": 124.00299957018572, "alt_km": 704.1549912169603, "timestamp": "2025-12-15T22:44:29.326078+00:00", "meta": {"OBJECT_NAME": "COSMOS 2251 DEB", "OBJECT_ID": "1993-036AGD", "EPOCH": "2025-12-14T14:45:32.916384", "MEAN_MOTION": 14.35064603, "ECCENTRICITY": 0.01144143, "INCLINATION": 73.9301, "RA_OF_ASC_NODE": 290.9619, "ARG_OF_PERICENTER": 207.5533, "MEAN_ANOMALY": 335.1759, "EPHEMERIS_TYPE": 0, "CLASSIFICATION_TYPE": "U", "NORAD_CAT_ID": 35016, "ELEMENT_SET_NO": 999, "REV_AT_EPOCH": 86809, "BSTAR": 0.00038793382, "MEAN_MOTION_DOT": 1.163e-05, "MEAN_MOTION_DDOT": 0}, "tle": {"line1": "1 35016U 93036AGD 25348.61496431  .00001163  00000+0  38793-3 0  9995", "line2": "2 35016  73.9301 290.9619 0114414 207.5533 335.1759 14.35064603868092"}}, "geometry": {"type": "Point", "coordinates": [124.00299957018572, -42.8321094234762]}}, {"type": "Feature", "properties": {"norad_id": 35018, "name": "COSMOS 2251 DEB", "group": "cosmos-2251-debris", "lat": -69.30851666612325, "lon": -25.75939081450414, "alt_km": 1124.4189788801605, "timestamp": "2025-12-15T22:44:29.326089+00:00", "meta": {"OBJECT_NAME": "COSMOS 2251 DEB", "OBJECT_ID": "1993-036AGF", "EPOCH": "2025-12-14T01:34:23.097504", "MEAN_MOTION": 13.6711728, "ECCENTRICITY": 0.03485759, "INCLINATION": 73.9758, "RA_OF_ASC_NODE": 107.7987, "ARG_OF_PERICENTER": 16.6862, "MEAN_ANOMALY": 344.5383, "EPHEMERIS_TYPE": 0, "CLASSIFICATION_TYPE": "U", "NORAD_CAT_ID": 35018, "ELEMENT_SET_NO": 999, "REV_AT_EPOCH": 83204, "BSTAR": 0.00097087301, "MEAN_MOTION_DOT": 1.216e-05, "MEAN_MOTION_DDOT": 0}, "tle": {"line1": "1 35018U 93036AGF 25348.06554511  .00001216  00000+0  97087-3 0  9990", "line2": "2 35018  73.9758 107.7987 0348575  16.6862 344.5383 13.67117280832041"}}, "geometry": {"type": "Point", "coordinates": [-25.75939081450414, -69.30851666612325]}}]}